<?xml version="1.0" encoding="UTF-8"?>
<ndm xmlns:xsi="http://www.w3.org/2001/XMLSchema-instance" xsi:noNamespaceSchemaLocation="https://sanaregistry.org/r/ndmxml_unqualified/ndmxml-2.0.0-master-2.0.xsd">
<omm id="CCSDS_OMM_VERS" version="2.0">
<header><CREATION_DATE/><ORIGINATOR/></header><body><segment><metadata><OBJECT_NAME>KUIPER-00061</OBJECT_NAME><OBJECT_ID>2025-134X</OBJECT_ID><CENTER_NAME>EARTH</CENTER_NAME><REF_FRAME>TEME</REF_FRAME><TIME_SYSTEM>UTC</TIME_SYSTEM><MEAN_ELEMENT_THEORY>SGP4</MEAN_ELEMENT_THEORY></metadata><data><meanElements><EPOCH>2025-07-24T15:10:08.066784</EPOCH><MEAN_MOTION>15.35468892</MEAN_MOTION><ECCENTRICITY>.0004947</ECCENTRICITY><INCLINATION>51.8724</INCLINATION><RA_OF_ASC_NODE>180.6848</RA_OF_ASC_NODE><ARG_OF_PERICENTER>217.9842</ARG_OF_PERICENTER><MEAN_ANOMALY>142.0796</MEAN_ANOMALY></meanElements><tleParameters><EPHEMERIS_TYPE>0</EPHEMERIS_TYPE><CLASSIFICATION_TYPE>U</CLASSIFICATION_TYPE><NORAD_CAT_ID>64521</NORAD_CAT_ID><ELEMENT_SET_NO>999</ELEMENT_SET_NO><REV_AT_EPOCH>557</REV_AT_EPOCH><BSTAR>.70674E-3</BSTAR><MEAN_MOTION_DOT>.24435E-3</MEAN_MOTION_DOT><MEAN_MOTION_DDOT>0</MEAN_MOTION_DDOT></tleParameters></data></segment></body></omm>
<omm id="CCSDS_OMM_VERS" version="2.0">
<header><CREATION_DATE/><ORIGINATOR/></header><body><segment><metadata><OBJECT_NAME>KUIPER-00062</OBJECT_NAME><OBJECT_ID>2025-134Y</OBJECT_ID><CENTER_NAME>EARTH</CENTER_NAME><REF_FRAME>TEME</REF_FRAME><TIME_SYSTEM>UTC</TIME_SYSTEM><MEAN_ELEMENT_THEORY>SGP4</MEAN_ELEMENT_THEORY></metadata><data><meanElements><EPOCH>2025-07-24T05:38:20.481792</EPOCH><MEAN_MOTION>15.35787914</MEAN_MOTION><ECCENTRICITY>.0004681</ECCENTRICITY><INCLINATION>51.8727</INCLINATION><RA_OF_ASC_NODE>182.5252</RA_OF_ASC_NODE><ARG_OF_PERICENTER>203.5027</ARG_OF_PERICENTER><MEAN_ANOMALY>156.5746</MEAN_ANOMALY></meanElements><tleParameters><EPHEMERIS_TYPE>0</EPHEMERIS_TYPE><CLASSIFICATION_TYPE>U</CLASSIFICATION_TYPE><NORAD_CAT_ID>64522</NORAD_CAT_ID><ELEMENT_SET_NO>999</ELEMENT_SET_NO><REV_AT_EPOCH>597</REV_AT_EPOCH><BSTAR>.90959E-3</BSTAR><MEAN_MOTION_DOT>.31916E-3</MEAN_MOTION_DOT><MEAN_MOTION_DDOT>0</MEAN_MOTION_DDOT></tleParameters></data></segment></body></omm>
<omm id="CCSDS_OMM_VERS" version="2.0">
<header><CREATION_DATE/><ORIGINATOR/></header><body><segment><metadata><OBJECT_NAME>KUIPER-00063</OBJECT_NAME><OBJECT_ID>2025-134Z</OBJECT_ID><CENTER_NAME>EARTH</CENTER_NAME><REF_FRAME>TEME</REF_FRAME><TIME_SYSTEM>UTC</TIME_SYSTEM><MEAN_ELEMENT_THEORY>SGP4</MEAN_ELEMENT_THEORY></metadata><data><meanElements><EPOCH>2025-07-24T08:30:38.047392</EPOCH><MEAN_MOTION>15.36227127</MEAN_MOTION><ECCENTRICITY>.000251</ECCENTRICITY><INCLINATION>51.8739</INCLINATION><RA_OF_ASC_NODE>181.8316</RA_OF_ASC_NODE><ARG_OF_PERICENTER>190.0287</ARG_OF_PERICENTER><MEAN_ANOMALY>170.0649</MEAN_ANOMALY></meanElements><tleParameters><EPHEMERIS_TYPE>0</EPHEMERIS_TYPE><CLASSIFICATION_TYPE>U</CLASSIFICATION_TYPE><NORAD_CAT_ID>64523</NORAD_CAT_ID><ELEMENT_SET_NO>999</ELEMENT_SET_NO><REV_AT_EPOCH>599</REV_AT_EPOCH><BSTAR>.36029E-3</BSTAR><MEAN_MOTION_DOT>.12554E-3</MEAN_MOTION_DOT><MEAN_MOTION_DDOT>0</MEAN_MOTION_DDOT></tleParameters></data></segment></body></omm>
<omm id="CCSDS_OMM_VERS" version="2.0">
<header><CREATION_DATE/><ORIGINATOR/></header><body><segment><metadata><OBJECT_NAME>KUIPER-00064</OBJECT_NAME><OBJECT_ID>2025-134AA</OBJECT_ID><CENTER_NAME>EARTH</CENTER_NAME><REF_FRAME>TEME</REF_FRAME><TIME_SYSTEM>UTC</TIME_SYSTEM><MEAN_ELEMENT_THEORY>SGP4</MEAN_ELEMENT_THEORY></metadata><data><meanElements><EPOCH>2025-07-24T08:14:23.193600</EPOCH><MEAN_MOTION>15.36966146</MEAN_MOTION><ECCENTRICITY>.0001722</ECCENTRICITY><INCLINATION>51.8761</INCLINATION><RA_OF_ASC_NODE>181.7556</RA_OF_ASC_NODE><ARG_OF_PERICENTER>133.3800</ARG_OF_PERICENTER><MEAN_ANOMALY>226.7331</MEAN_ANOMALY></meanElements><tleParameters><EPHEMERIS_TYPE>0</EPHEMERIS_TYPE><CLASSIFICATION_TYPE>U</CLASSIFICATION_TYPE><NORAD_CAT_ID>64524</NORAD_CAT_ID><ELEMENT_SET_NO>999</ELEMENT_SET_NO><REV_AT_EPOCH>583</REV_AT_EPOCH><BSTAR>.10155E-2</BSTAR><MEAN_MOTION_DOT>.37082E-3</MEAN_MOTION_DOT><MEAN_MOTION_DDOT>0</MEAN_MOTION_DDOT></tleParameters></data></segment></body></omm>
<omm id="CCSDS_OMM_VERS" version="2.0">
<header><CREATION_DATE/><ORIGINATOR/></header><body><segment><metadata><OBJECT_NAME>KUIPER-00065</OBJECT_NAME><OBJECT_ID>2025-134AB</OBJECT_ID><CENTER_NAME>EARTH</CENTER_NAME><REF_FRAME>TEME</REF_FRAME><TIME_SYSTEM>UTC</TIME_SYSTEM><MEAN_ELEMENT_THEORY>SGP4</MEAN_ELEMENT_THEORY></metadata><data><meanElements><EPOCH>2025-07-24T15:32:13.316640</EPOCH><MEAN_MOTION>15.34765256</MEAN_MOTION><ECCENTRICITY>.0007812</ECCENTRICITY><INCLINATION>51.8704</INCLINATION><RA_OF_ASC_NODE>180.7752</RA_OF_ASC_NODE><ARG_OF_PERICENTER>221.6217</ARG_OF_PERICENTER><MEAN_ANOMALY>138.4175</MEAN_ANOMALY></meanElements><tleParameters><EPHEMERIS_TYPE>0</EPHEMERIS_TYPE><CLASSIFICATION_TYPE>U</CLASSIFICATION_TYPE><NORAD_CAT_ID>64525</NORAD_CAT_ID><ELEMENT_SET_NO>999</ELEMENT_SET_NO><REV_AT_EPOCH>581</REV_AT_EPOCH><BSTAR>.94092E-3</BSTAR><MEAN_MOTION_DOT>.31976E-3</MEAN_MOTION_DOT><MEAN_MOTION_DDOT>0</MEAN_MOTION_DDOT></tleParameters></data></segment></body></omm>
<omm id="CCSDS_OMM_VERS" version="2.0">
<header><CREATION_DATE/><ORIGINATOR/></header><body><segment><metadata><OBJECT_NAME>KUIPER-00066</OBJECT_NAME><OBJECT_ID>2025-134AC</OBJECT_ID><CENTER_NAME>EARTH</CENTER_NAME><REF_FRAME>TEME</REF_FRAME><TIME_SYSTEM>UTC</TIME_SYSTEM><MEAN_ELEMENT_THEORY>SGP4</MEAN_ELEMENT_THEORY></metadata><data><meanElements><EPOCH>2025-07-24T08:21:40.713696</EPOCH><MEAN_MOTION>15.36730931</MEAN_MOTION><ECCENTRICITY>.0001433</ECCENTRICITY><INCLINATION>51.8759</INCLINATION><RA_OF_ASC_NODE>181.7924</RA_OF_ASC_NODE><ARG_OF_PERICENTER>145.3960</ARG_OF_PERICENTER><MEAN_ANOMALY>214.7120</MEAN_ANOMALY></meanElements><tleParameters><EPHEMERIS_TYPE>0</EPHEMERIS_TYPE><CLASSIFICATION_TYPE>U</CLASSIFICATION_TYPE><NORAD_CAT_ID>64526</NORAD_CAT_ID><ELEMENT_SET_NO>999</ELEMENT_SET_NO><REV_AT_EPOCH>553</REV_AT_EPOCH><BSTAR>.81656E-3</BSTAR><MEAN_MOTION_DOT>.29484E-3</MEAN_MOTION_DOT><MEAN_MOTION_DDOT>0</MEAN_MOTION_DDOT></tleParameters></data></segment></body></omm>
<omm id="CCSDS_OMM_VERS" version="2.0">
<header><CREATION_DATE/><ORIGINATOR/></header><body><segment><metadata><OBJECT_NAME>KUIPER-00069</OBJECT_NAME><OBJECT_ID>2025-151A</OBJECT_ID><CENTER_NAME>EARTH</CENTER_NAME><REF_FRAME>TEME</REF_FRAME><TIME_SYSTEM>UTC</TIME_SYSTEM><MEAN_ELEMENT_THEORY>SGP4</MEAN_ELEMENT_THEORY></metadata><data><meanElements><EPOCH>2025-07-24T14:19:12.751104</EPOCH><MEAN_MOTION>15.35651741</MEAN_MOTION><ECCENTRICITY>.0006093</ECCENTRICITY><INCLINATION>51.8775</INCLINATION><RA_OF_ASC_NODE>247.4399</RA_OF_ASC_NODE><ARG_OF_PERICENTER>162.6272</ARG_OF_PERICENTER><MEAN_ANOMALY>197.4924</MEAN_ANOMALY></meanElements><tleParameters><EPHEMERIS_TYPE>0</EPHEMERIS_TYPE><CLASSIFICATION_TYPE>U</CLASSIFICATION_TYPE><NORAD_CAT_ID>64816</NORAD_CAT_ID><ELEMENT_SET_NO>999</ELEMENT_SET_NO><REV_AT_EPOCH>245</REV_AT_EPOCH><BSTAR>.57348E-3</BSTAR><MEAN_MOTION_DOT>.19863E-3</MEAN_MOTION_DOT><MEAN_MOTION_DDOT>0</MEAN_MOTION_DDOT></tleParameters></data></segment></body></omm>
<omm id="CCSDS_OMM_VERS" version="2.0">
<header><CREATION_DATE/><ORIGINATOR/></header><body><segment><metadata><OBJECT_NAME>KUIPER-00070</OBJECT_NAME><OBJECT_ID>2025-151B</OBJECT_ID><CENTER_NAME>EARTH</CENTER_NAME><REF_FRAME>TEME</REF_FRAME><TIME_SYSTEM>UTC</TIME_SYSTEM><MEAN_ELEMENT_THEORY>SGP4</MEAN_ELEMENT_THEORY></metadata><data><meanElements><EPOCH>2025-07-24T14:24:43.244064</EPOCH><MEAN_MOTION>15.34978766</MEAN_MOTION><ECCENTRICITY>.0005578</ECCENTRICITY><INCLINATION>51.8770</INCLINATION><RA_OF_ASC_NODE>247.4637</RA_OF_ASC_NODE><ARG_OF_PERICENTER>185.7220</ARG_OF_PERICENTER><MEAN_ANOMALY>174.3703</MEAN_ANOMALY></meanElements><tleParameters><EPHEMERIS_TYPE>0</EPHEMERIS_TYPE><CLASSIFICATION_TYPE>U</CLASSIFICATION_TYPE><NORAD_CAT_ID>64817</NORAD_CAT_ID><ELEMENT_SET_NO>999</ELEMENT_SET_NO><REV_AT_EPOCH>245</REV_AT_EPOCH><BSTAR>.58207E-3</BSTAR><MEAN_MOTION_DOT>.1973E-3</MEAN_MOTION_DOT><MEAN_MOTION_DDOT>0</MEAN_MOTION_DDOT></tleParameters></data></segment></body></omm>

</ndm>
