KUIPER-00061            
1 64521U 25134X   25205.63203781  .00024435  00000+0  70674-3 0  9991
2 64521  51.8724 180.6848 0004947 217.9842 142.0796 15.35468892  5576
KUIPER-00062            
1 64522U 25134Y   25205.23495928  .00031916  00000+0  90959-3 0  9994
2 64522  51.8727 182.5252 0004681 203.5027 156.5746 15.35787914  5979
KUIPER-00063            
1 64523U 25134Z   25205.35460703  .00012554  00000+0  36029-3 0  9996
2 64523  51.8739 181.8316 0002510 190.0287 170.0649 15.36227127  5994
KUIPER-00064            
1 64524U 25134AA  25205.34332400  .00037082  00000+0  10155-2 0  9992
2 64524  51.8761 181.7556 0001722 133.3800 226.7331 15.36966146  5831
KUIPER-00065            
1 64525U 25134AB  25205.64737635  .00031976  00000+0  94092-3 0  9994
2 64525  51.8704 180.7752 0007812 221.6217 138.4175 15.34765256  5815
KUIPER-00066            
1 64526U 25134AC  25205.34838789  .00029484  00000+0  81656-3 0  9997
2 64526  51.8759 181.7924 0001433 145.3960 214.7120 15.36730931  5539
KUIPER-00069            
1 64816U 25151A   25205.59667536  .00019863  00000+0  57348-3 0  9996
2 64816  51.8775 247.4399 0006093 162.6272 197.4924 15.35651741  2457
KUIPER-00070            
1 64817U 25151B   25205.60050051  .00019730  00000+0  58207-3 0  9995
2 64817  51.8770 247.4637 0005578 185.7220 174.3703 15.34978766  2451
